STARLINK-5191           
1 54763U 22175F   26068.20456488  .00000179  00000+0  29330-4 0  9998
2 54763  53.2177  46.4475 0001403  87.5200 272.5953 15.08840131179845
LEMUR-2-ESPERANZA       
1 63352U 25061B   26068.87489603  .00006090  00000+0  34973-3 0  9993
2 63352  97.5568  45.1407 0016949 244.8770 115.0702 15.12770807 52576
